CCSDS_OMM_VERS = 2.0
CREATION_DATE  = 
ORIGINATOR     = 

OBJECT_NAME    = STARLINK-36520
OBJECT_ID      = 2026-008X
CENTER_NAME    = EARTH
REF_FRAME      = TEME
TIME_SYSTEM    = UTC
MEAN_ELEMENT_THEORY = SGP/SGP4

EPOCH          = 2026-02-08T04:00:01.999584
MEAN_MOTION    = 15.50567210
ECCENTRICITY   = .0001659
INCLINATION    = 43.0002
RA_OF_ASC_NODE = 13.2152
ARG_OF_PERICENTER = 251.8117
MEAN_ANOMALY   = 69.6859

EPHEMERIS_TYPE = 0
CLASSIFICATION_TYPE = U
NORAD_CAT_ID   = 67466
ELEMENT_SET_NO = 999
REV_AT_EPOCH   = 505
BSTAR          = -.40153E-3
MEAN_MOTION_DOT = -.23816E-3
MEAN_MOTION_DDOT = 0

CCSDS_OMM_VERS = 2.0
CREATION_DATE  = 
ORIGINATOR     = 

OBJECT_NAME    = STARLINK-36425
OBJECT_ID      = 2026-008Y
CENTER_NAME    = EARTH
REF_FRAME      = TEME
TIME_SYSTEM    = UTC
MEAN_ELEMENT_THEORY = SGP/SGP4

EPOCH          = 2026-02-08T04:00:01.999584
MEAN_MOTION    = 15.50592040
ECCENTRICITY   = .0001014
INCLINATION    = 42.9998
RA_OF_ASC_NODE = 13.6026
ARG_OF_PERICENTER = 260.5404
MEAN_ANOMALY   = 263.4921

EPHEMERIS_TYPE = 0
CLASSIFICATION_TYPE = U
NORAD_CAT_ID   = 67467
ELEMENT_SET_NO = 999
REV_AT_EPOCH   = 505
BSTAR          = -.13294E-2
MEAN_MOTION_DOT = -.77595E-3
MEAN_MOTION_DDOT = 0

CCSDS_OMM_VERS = 2.0
CREATION_DATE  = 
ORIGINATOR     = 

OBJECT_NAME    = STARLINK-36414
OBJECT_ID      = 2026-008Z
CENTER_NAME    = EARTH
REF_FRAME      = TEME
TIME_SYSTEM    = UTC
MEAN_ELEMENT_THEORY = SGP/SGP4

EPOCH          = 2026-02-08T04:00:01.999584
MEAN_MOTION    = 15.50593967
ECCENTRICITY   = .000087
INCLINATION    = 43.0000
RA_OF_ASC_NODE = 13.0245
ARG_OF_PERICENTER = 264.3541
MEAN_ANOMALY   = 132.5995

EPHEMERIS_TYPE = 0
CLASSIFICATION_TYPE = U
NORAD_CAT_ID   = 67468
ELEMENT_SET_NO = 999
REV_AT_EPOCH   = 505
BSTAR          = -.12868E-2
MEAN_MOTION_DOT = -.75149E-3
MEAN_MOTION_DDOT = 0

CCSDS_OMM_VERS = 2.0
CREATION_DATE  = 
ORIGINATOR     = 

OBJECT_NAME    = STARLINK-36441
OBJECT_ID      = 2026-008AA
CENTER_NAME    = EARTH
REF_FRAME      = TEME
TIME_SYSTEM    = UTC
MEAN_ELEMENT_THEORY = SGP/SGP4

EPOCH          = 2026-02-08T04:00:01.999584
MEAN_MOTION    = 15.50540229
ECCENTRICITY   = .0001376
INCLINATION    = 43.0002
RA_OF_ASC_NODE = 13.1688
ARG_OF_PERICENTER = 273.6457
MEAN_ANOMALY   = 63.7789

EPHEMERIS_TYPE = 0
CLASSIFICATION_TYPE = U
NORAD_CAT_ID   = 67469
ELEMENT_SET_NO = 999
REV_AT_EPOCH   = 505
BSTAR          = .33891E-2
MEAN_MOTION_DOT = .203457E-2
MEAN_MOTION_DDOT = 0

CCSDS_OMM_VERS = 2.0
CREATION_DATE  = 
ORIGINATOR     = 

OBJECT_NAME    = STARLINK-36454
OBJECT_ID      = 2026-008AB
CENTER_NAME    = EARTH
REF_FRAME      = TEME
TIME_SYSTEM    = UTC
MEAN_ELEMENT_THEORY = SGP/SGP4

EPOCH          = 2026-02-08T04:00:01.999584
MEAN_MOTION    = 15.50592808
ECCENTRICITY   = .0001115
INCLINATION    = 43.0000
RA_OF_ASC_NODE = 13.0811
ARG_OF_PERICENTER = 269.0101
MEAN_ANOMALY   = 103.9548

EPHEMERIS_TYPE = 0
CLASSIFICATION_TYPE = U
NORAD_CAT_ID   = 67470
ELEMENT_SET_NO = 999
REV_AT_EPOCH   = 505
BSTAR          = -.11972E-2
MEAN_MOTION_DOT = -.69984E-3
MEAN_MOTION_DDOT = 0

CCSDS_OMM_VERS = 2.0
CREATION_DATE  = 
ORIGINATOR     = 

OBJECT_NAME    = STARLINK-36334
OBJECT_ID      = 2026-008AC
CENTER_NAME    = EARTH
REF_FRAME      = TEME
TIME_SYSTEM    = UTC
MEAN_ELEMENT_THEORY = SGP/SGP4

EPOCH          = 2026-02-08T04:00:01.999584
MEAN_MOTION    = 15.50564962
ECCENTRICITY   = .0001124
INCLINATION    = 42.9998
RA_OF_ASC_NODE = 12.9210
ARG_OF_PERICENTER = 272.5171
MEAN_ANOMALY   = 165.9408

EPHEMERIS_TYPE = 0
CLASSIFICATION_TYPE = U
NORAD_CAT_ID   = 67471
ELEMENT_SET_NO = 999
REV_AT_EPOCH   = 505
BSTAR          = -.39479E-1
MEAN_MOTION_DOT = -.2060319E-1
MEAN_MOTION_DDOT = 0

CCSDS_OMM_VERS = 2.0
CREATION_DATE  = 
ORIGINATOR     = 

OBJECT_NAME    = STARLINK-36269
OBJECT_ID      = 2026-008AD
CENTER_NAME    = EARTH
REF_FRAME      = TEME
TIME_SYSTEM    = UTC
MEAN_ELEMENT_THEORY = SGP/SGP4

EPOCH          = 2026-02-08T04:00:01.999584
MEAN_MOTION    = 15.50608897
ECCENTRICITY   = .0000894
INCLINATION    = 42.9997
RA_OF_ASC_NODE = 13.0006
ARG_OF_PERICENTER = 244.7266
MEAN_ANOMALY   = 160.5930

EPHEMERIS_TYPE = 0
CLASSIFICATION_TYPE = U
NORAD_CAT_ID   = 67472
ELEMENT_SET_NO = 999
REV_AT_EPOCH   = 507
BSTAR          = -.1811E-2
MEAN_MOTION_DOT = -.105276E-2
MEAN_MOTION_DDOT = 0

CCSDS_OMM_VERS = 2.0
CREATION_DATE  = 
ORIGINATOR     = 

OBJECT_NAME    = STARLINK-36408
OBJECT_ID      = 2026-008AE
CENTER_NAME    = EARTH
REF_FRAME      = TEME
TIME_SYSTEM    = UTC
MEAN_ELEMENT_THEORY = SGP/SGP4

EPOCH          = 2026-02-08T04:00:01.999584
MEAN_MOTION    = 15.50500706
ECCENTRICITY   = .0000814
INCLINATION    = 43.0000
RA_OF_ASC_NODE = 13.1138
ARG_OF_PERICENTER = 279.2773
MEAN_ANOMALY   = 79.8740

EPHEMERIS_TYPE = 0
CLASSIFICATION_TYPE = U
NORAD_CAT_ID   = 67473
ELEMENT_SET_NO = 999
REV_AT_EPOCH   = 507
BSTAR          = .97949E-3
MEAN_MOTION_DOT = .57381E-3
MEAN_MOTION_DDOT = 0

CCSDS_OMM_VERS = 2.0
CREATION_DATE  = 
ORIGINATOR     = 

OBJECT_NAME    = ALSAT-3A
OBJECT_ID      = 2026-009A
CENTER_NAME    = EARTH
REF_FRAME      = TEME
TIME_SYSTEM    = UTC
MEAN_ELEMENT_THEORY = SGP/SGP4

EPOCH          = 2026-02-08T04:30:07.809696
MEAN_MOTION    = 15.23442275
ECCENTRICITY   = .0012396
INCLINATION    = 97.4676
RA_OF_ASC_NODE = 113.8490
ARG_OF_PERICENTER = 171.6536
MEAN_ANOMALY   = 188.4909

EPHEMERIS_TYPE = 0
CLASSIFICATION_TYPE = U
NORAD_CAT_ID   = 67474
ELEMENT_SET_NO = 999
REV_AT_EPOCH   = 363
BSTAR          = .32701E-3
MEAN_MOTION_DOT = .7737E-4
MEAN_MOTION_DDOT = 0

CCSDS_OMM_VERS = 2.0
CREATION_DATE  = 
ORIGINATOR     = 

OBJECT_NAME    = CZ-2C R/B
OBJECT_ID      = 2026-009B
CENTER_NAME    = EARTH
REF_FRAME      = TEME
TIME_SYSTEM    = UTC
MEAN_ELEMENT_THEORY = SGP/SGP4

EPOCH          = 2026-02-08T04:18:03.771648
MEAN_MOTION    = 15.03124959
ECCENTRICITY   = .0100412
INCLINATION    = 97.1752
RA_OF_ASC_NODE = 111.8968
ARG_OF_PERICENTER = 140.0670
MEAN_ANOMALY   = 220.7999

EPHEMERIS_TYPE = 0
CLASSIFICATION_TYPE = U
NORAD_CAT_ID   = 67475
ELEMENT_SET_NO = 999
REV_AT_EPOCH   = 364
BSTAR          = .24583E-3
MEAN_MOTION_DOT = .3645E-4
MEAN_MOTION_DDOT = 0

CCSDS_OMM_VERS = 2.0
CREATION_DATE  = 
ORIGINATOR     = 

OBJECT_NAME    = TIANQI-37
OBJECT_ID      = 2026-010A
CENTER_NAME    = EARTH
REF_FRAME      = TEME
TIME_SYSTEM    = UTC
MEAN_ELEMENT_THEORY = SGP/SGP4

EPOCH          = 2026-02-08T03:16:06.049632
MEAN_MOTION    = 14.13528365
ECCENTRICITY   = .0012906
INCLINATION    = 44.9826
RA_OF_ASC_NODE = 297.2970
ARG_OF_PERICENTER = 69.5316
MEAN_ANOMALY   = 290.6906

EPHEMERIS_TYPE = 0
CLASSIFICATION_TYPE = U
NORAD_CAT_ID   = 67476
ELEMENT_SET_NO = 999
REV_AT_EPOCH   = 330
BSTAR          = .16384E-3
MEAN_MOTION_DOT = .177E-5
MEAN_MOTION_DDOT = 0

CCSDS_OMM_VERS = 2.0
CREATION_DATE  = 
ORIGINATOR     = 

OBJECT_NAME    = TIANQI-38
OBJECT_ID      = 2026-010B
CENTER_NAME    = EARTH
REF_FRAME      = TEME
TIME_SYSTEM    = UTC
MEAN_ELEMENT_THEORY = SGP/SGP4

EPOCH          = 2026-02-08T03:09:46.789920
MEAN_MOTION    = 14.13905698
ECCENTRICITY   = .0011751
INCLINATION    = 44.9788
RA_OF_ASC_NODE = 297.2643
ARG_OF_PERICENTER = 74.9003
MEAN_ANOMALY   = 285.3135

EPHEMERIS_TYPE = 0
CLASSIFICATION_TYPE = U
NORAD_CAT_ID   = 67477
ELEMENT_SET_NO = 999
REV_AT_EPOCH   = 330
BSTAR          = .18509E-3
MEAN_MOTION_DOT = .22E-5
MEAN_MOTION_DDOT = 0

