STARLINK-36520          
1 67466U 26008X   26039.16668981 -.00023816  00000+0 -40153-3 0  9997
2 67466  43.0002  13.2152 0001659 251.8117  69.6859 15.50567210  5055
STARLINK-36425          
1 67467U 26008Y   26039.16668981 -.00077595  00000+0 -13294-2 0  9996
2 67467  42.9998  13.6026 0001014 260.5404 263.4921 15.50592040  5056
STARLINK-36414          
1 67468U 26008Z   26039.16668981 -.00075149  00000+0 -12868-2 0  9996
2 67468  43.0000  13.0245 0000870 264.3541 132.5995 15.50593967  5059
STARLINK-36441          
1 67469U 26008AA  26039.16668981  .00203457  00000+0  33891-2 0  9999
2 67469  43.0002  13.1688 0001376 273.6457  63.7789 15.50540229  5054
STARLINK-36454          
1 67470U 26008AB  26039.16668981 -.00069984  00000+0 -11972-2 0  9994
2 67470  43.0000  13.0811 0001115 269.0101 103.9548 15.50592808  5057
STARLINK-36334          
1 67471U 26008AC  26039.16668981 -.02060319  00000+0 -39479-1 0  9991
2 67471  42.9998  12.9210 0001124 272.5171 165.9408 15.50564962  5052
STARLINK-36269          
1 67472U 26008AD  26039.16668981 -.00105276  00000+0 -18110-2 0  9992
2 67472  42.9997  13.0006 0000894 244.7266 160.5930 15.50608897  5075
STARLINK-36408          
1 67473U 26008AE  26039.16668981  .00057381  00000+0  97949-3 0  9992
2 67473  43.0000  13.1138 0000814 279.2773  79.8740 15.50500706  5079
ALSAT-3A                
1 67474U 26009A   26039.18759039  .00007737  00000+0  32701-3 0  9996
2 67474  97.4676 113.8490 0012396 171.6536 188.4909 15.23442275  3631
CZ-2C R/B               
1 67475U 26009B   26039.17921032  .00003645  00000+0  24583-3 0  9993
2 67475  97.1752 111.8968 0100412 140.0670 220.7999 15.03124959  3642
TIANQI-37               
1 67476U 26010A   26039.13618113  .00000177  00000+0  16384-3 0  9992
2 67476  44.9826 297.2970 0012906  69.5316 290.6906 14.13528365  3305
TIANQI-38               
1 67477U 26010B   26039.13179155  .00000220  00000+0  18509-3 0  9991
2 67477  44.9788 297.2643 0011751  74.9003 285.3135 14.13905698  3303
